*******************************************************************************
JPL/HORIZONS                 1089 Tama (1927 WB)           2023-Sep-04 11:10:08
Rec #:    1089 (+COV) Soln.date: 2023-Aug-21_13:51:19   # obs: 4150 (1894-2022)
 
IAU76/J2000 helio. ecliptic osc. elements (au, days, deg., period=Julian yrs):
 
  EPOCH=  2457346.5 ! 2015-Nov-20.00 (TDB)         Residual RMS= .25682
   EC= .1272705529676358   QR= 1.932193733692116   TP= 2457723.5772311548
   OM= 71.49590229609336   W=  354.2756325367756   IN= 3.726347491587785
   A= 2.213966470665522    MA= 247.182148655231    ADIST= 2.495739207638928
   PER= 3.29431            N= .299190304           ANGMOM= .025387554
   DAN= 1.93328            DDN= 2.49393            L= 65.783557
   B= -.3714175            MOID= .94547403         TP= 2016-Dec-01.0772311548
 
Asteroid physical parameters (km, seconds, rotational period in hours):
   GM= n.a.                RAD= 6.541              ROTPER= 16.44
   H= 11.68                G= .150                 B-V= n.a.
                           ALBEDO= .216            STYP= n.a.

ASTEROID comments: 
1: soln ref.= JPL#89, OCC=0
2: source=ORB
*******************************************************************************


*******************************************************************************
Ephemeris / API_USER Mon Sep  4 11:10:08 2023 Pasadena, USA      / Horizons
*******************************************************************************
Target body name: 1089 Tama (1927 WB)             {source: JPL#89}
Center body name: Solar System Barycenter (0)     {source: DE441}
Center-site name: BODY CENTER
*******************************************************************************
Start time      : A.D. 2023-Aug-12 00:00:00.0000 TDB
Stop  time      : A.D. 2023-Aug-13 00:00:00.0000 TDB
Step-size       : 2880 minutes
*******************************************************************************
Center geodetic : 0.0, 0.0, 0.0                   {E-lon(deg),Lat(deg),Alt(km)}
Center cylindric: 0.0, 0.0, 0.0                   {E-lon(deg),Dxy(km),Dz(km)}
Center radii    : (undefined)
Small perturbers: Yes                             {source: SB441-N16}
Output units    : KM-S
Calendar mode   : Mixed Julian/Gregorian
Output type     : GEOMETRIC cartesian states
Output format   : 2 (position and velocity)
Reference frame : Ecliptic of J2000.0
*******************************************************************************
Initial IAU76/J2000 heliocentric ecliptic osculating elements (au, days, deg.):
  EPOCH=  2457346.5 ! 2015-Nov-20.00 (TDB)         Residual RMS= .25682        
   EC= .1272705529676358   QR= 1.932193733692116   TP= 2457723.5772311548      
   OM= 71.49590229609336   W=  354.2756325367756   IN= 3.726347491587785       
  Equivalent ICRF heliocentric cartesian coordinates (au, au/d):
   X= 1.186108867438708E+00  Y=-1.813946080766720E+00  Z=-9.119537407166887E-01
  VX= 8.688715767397222E-03 VY= 6.132844493619775E-03 VZ= 2.220686067454272E-03
Asteroid physical parameters (km, seconds, rotational period in hours):        
   GM= n.a.                RAD= 6.541              ROTPER= 16.44               
   H= 11.68                G= .150                 B-V= n.a.                   
                           ALBEDO= .216            STYP= n.a.                  
*******************************************************************************
JDTDB
   X     Y     Z
   VX    VY    VZ
*******************************************************************************
$$SOE
2460168.500000000 = A.D. 2023-Aug-12 00:00:00.0000 TDB 
 X = 4.608108987095688E+07 Y = 2.858983342560143E+08 Z = 3.038031468106151E+06
 VX=-2.220671655151766E+01 VY= 4.314818453080311E+00 VZ= 1.461484461001446E+00
$$EOE
*******************************************************************************
 
TIME

  Barycentric Dynamical Time ("TDB" or T_eph) output was requested. This
continuous coordinate time is equivalent to the relativistic proper time
of a clock at rest in a reference frame co-moving with the solar system
barycenter but outside the system's gravity well. It is the independent
variable in the solar system relativistic equations of motion.

  TDB runs at a uniform rate of one SI second per second and is independent
of irregularities in Earth's rotation.
 
CALENDAR SYSTEM

  Mixed calendar mode was active such that calendar dates after AD 1582-Oct-15
(if any) are in the modern Gregorian system. Dates prior to 1582-Oct-5 (if any)
are in the Julian calendar system, which is automatically extended for dates
prior to its adoption on 45-Jan-1 BC.  The Julian calendar is useful for
matching historical dates. The Gregorian calendar more accurately corresponds
to the Earth's orbital motion and seasons. A "Gregorian-only" calendar mode is
available if such physical events are the primary interest.

REFERENCE FRAME AND COORDINATES

  Ecliptic at the standard reference epoch

    Reference epoch: J2000.0
    X-Y plane: adopted Earth orbital plane at the reference epoch
               Note: IAU76 obliquity of 84381.448 arcseconds wrt ICRF X-Y plane
    X-axis   : ICRF
    Z-axis   : perpendicular to the X-Y plane in the directional (+ or -) sense
               of Earth's north pole at the reference epoch.

  Symbol meaning:

    JDTDB    Julian Day Number, Barycentric Dynamical Time
      X      X-component of position vector (km)
      Y      Y-component of position vector (km)
      Z      Z-component of position vector (km)
      VX     X-component of velocity vector (km/sec)                           
      VY     Y-component of velocity vector (km/sec)                           
      VZ     Z-component of velocity vector (km/sec)                           

ABERRATIONS AND CORRECTIONS

 Geometric state vectors have NO corrections or aberrations applied.

Computations by ...

    Solar System Dynamics Group, Horizons On-Line Ephemeris System
    4800 Oak Grove Drive, Jet Propulsion Laboratory
    Pasadena, CA  91109   USA

    General site: https://ssd.jpl.nasa.gov/
    Mailing list: https://ssd.jpl.nasa.gov/email_list.html
    System news : https://ssd.jpl.nasa.gov/horizons/news.html
    User Guide  : https://ssd.jpl.nasa.gov/horizons/manual.html
    Connect     : browser        https://ssd.jpl.nasa.gov/horizons/app.html#/x
                  API            https://ssd-api.jpl.nasa.gov/doc/horizons.html
                  command-line   telnet ssd.jpl.nasa.gov 6775
                  e-mail/batch   https://ssd.jpl.nasa.gov/ftp/ssd/hrzn_batch.txt
                  scripts        https://ssd.jpl.nasa.gov/ftp/ssd/SCRIPTS
    Author      : Jon.D.Giorgini@jpl.nasa.gov
*******************************************************************************
